NORAD_CAT_ID,OBJECT_NAME,OBJECT_TYPE,EPOCH,MEAN_MOTION,ECCENTRICITY,INCLINATION,RA_OF_ASC_NODE,ARG_OF_PERICENTER,MEAN_ANOMALY,BSTAR,MEAN_MOTION_DOT,MEAN_MOTION_DDOT,TLE_LINE0,TLE_LINE1,TLE_LINE2,SEMIMAJOR_AXIS,PERIOD,APOGEE,PERIGEE,DECAYED
52105.0,STARLINK-3706,PAYLOAD,2023-09-05 00:01:17,15.08836752,0.0001343,53.2162,234.2991,95.0365,265.0781,7.3422e-05,8.81e-06,0.0,0 STARLINK-3706,1 52105U 22029T   23248.00089490  .00000881  00000-0  73422-4 0  9996,2 52105  53.2162 234.2991 0001343  95.0365 265.0781 15.08836752 82399,6917.89,95.438,540.684,538.826,0.0
52105.0,STARLINK-3706,PAYLOAD,2023-09-06 07:49:00,15.08838374,0.000127,53.2158,228.3505,86.0305,274.0832,0.00015357,2.157e-05,0.0,0 STARLINK-3706,1 52105U 22029T   23249.32569637  .00002157  00000-0  15357-3 0  9998,2 52105  53.2158 228.3505 0001270  86.0305 274.0832 15.08838374 82593,6917.885,95.438,540.629,538.872,0.0
52105.0,STARLINK-3706,PAYLOAD,2023-09-06 10:59:46,15.08841729,0.000129,53.2161,227.7561,87.2993,272.8146,0.00018036,2.584e-05,0.0,0 STARLINK-3706,1 52105U 22029T   23249.45817415  .00002584  00000-0  18036-3 0  9993,2 52105  53.2161 227.7561 0001290  87.2993 272.8146 15.08841729 82615,6917.875,95.437,540.633,538.848,0.0
52105.0,STARLINK-3706,PAYLOAD,2023-09-06 15:45:55,15.08840307,0.0001269,53.2158,226.8634,85.7721,274.3416,0.00013868,1.92e-05,0.0,0 STARLINK-3706,1 52105U 22029T   23249.65689643  .00001920  00000-0  13868-3 0  9996,2 52105  53.2158 226.8634 0001269  85.7721 274.3416 15.08840307 82641,6917.879,95.438,540.622,538.867,0.0
52105.0,STARLINK-3706,PAYLOAD,2023-09-07 07:39:47,15.08842834,0.0001358,53.2165,223.8889,86.852,273.2627,6.173e-05,6.95e-06,0.0,0 STARLINK-3706,1 52105U 22029T   23250.31929664  .00000695  00000-0  61730-4 0  9991,2 52105  53.2165 223.8889 0001358  86.8520 273.2627 15.08842834 82746,6917.872,95.437,540.676,538.797,0.0
52105.0,STARLINK-3706,PAYLOAD,2023-09-08 02:44:24,15.08844778,0.0001616,53.2189,220.3194,86.9809,273.1368,8.0874e-05,9.99e-06,0.0,0 STARLINK-3706,1 52105U 22029T   23251.11417476  .00000999  00000-0  80874-4 0  9990,2 52105  53.2189 220.3194 0001616  86.9809 273.1368 15.08844778 82864,6917.866,95.437,540.849,538.613,0.0
52105.0,STARLINK-3706,PAYLOAD,2023-09-08 04:19:47,15.08846561,0.0001271,53.2154,220.0255,86.3316,273.7821,9.2805e-05,1.19e-05,0.0,0 STARLINK-3706,1 52105U 22029T   23251.18041241  .00001190  00000-0  92805-4 0  9991,2 52105  53.2154 220.0255 0001271  86.3316 273.7821 15.08846561 82878,6917.86,95.437,540.605,538.846,0.0
52105.0,STARLINK-3706,PAYLOAD,2023-09-08 15:27:29,15.08850388,0.0001209,53.2159,217.944,83.0198,277.0932,-4.9915e-05,-1.082e-05,0.0,0 STARLINK-3706,1 52105U 22029T   23251.64409202 -.00001082  00000-0 -49915-4 0  9993,2 52105  53.2159 217.9440 0001209  83.0198 277.0932 15.08850388 82947,6917.849,95.437,540.55,538.877,0.0
52105.0,STARLINK-3706,PAYLOAD,2023-09-09 02:35:11,15.08839453,0.0001313,53.2153,215.863,85.4533,274.6609,6.2392e-05,7.05e-06,0.0,0 STARLINK-3706,1 52105U 22029T   23252.10777755  .00000705  00000-0  62392-4 0  9999,2 52105  53.2153 215.8630 0001313  85.4533 274.6609 15.08839453 83017,6917.882,95.438,540.655,538.839,0.0
52105.0,STARLINK-3706,PAYLOAD,2023-09-09 07:21:21,15.08836087,0.0001343,53.2167,214.9693,95.4334,264.6812,0.00015779,2.224e-05,0.0,0 STARLINK-3706,1 52105U 22029T   23252.30649563  .00002224  00000-0  15779-3 0  9990,2 52105  53.2167 214.9693 0001343  95.4334 264.6812 15.08836087 83042,6917.892,95.438,540.686,538.828,0.0
52105.0,STARLINK-3706,PAYLOAD,2023-09-10 07:12:07,15.08849652,0.0001491,53.2182,210.5071,101.8313,258.2846,2.9727e-05,1.85e-06,0.0,0 STARLINK-3706,1 52105U 22029T   23253.30009035  .00000185  00000-0  29727-4 0  9998,2 52105  53.2182 210.5071 0001491 101.8313 258.2846 15.08849652 83198,6917.851,95.437,540.747,538.684,0.0
52105.0,STARLINK-3706,PAYLOAD,2023-09-11 03:52:11,15.08814443,0.0001254,53.2167,206.6427,96.5077,263.6058,-0.00012487,-2.273e-05,0.0,0 STARLINK-3706,1 52105U 22029T   23254.16124298 -.00002273  00000-0 -12487-3 0  9998,2 52105  53.2167 206.6427 0001254  96.5077 263.6058 15.08814443 83326,6917.959,95.439,540.691,538.956,0.0
52105.0,STARLINK-3706,PAYLOAD,2023-09-11 13:24:29,15.08826496,0.0001295,53.2172,204.8592,98.4702,261.6437,-1.9527e-05,-5.98e-06,0.0,0 STARLINK-3706,1 52105U 22029T   23254.55867791 -.00000598  00000-0 -19527-4 0  9994,2 52105  53.2172 204.8592 0001295  98.4702 261.6437 15.08826496 83382,6917.922,95.438,540.683,538.891,0.0
52105.0,STARLINK-3706,PAYLOAD,2023-09-12 02:07:34,15.08842134,0.000149,53.2177,202.48,96.9262,263.19,8.3139e-05,1.036e-05,0.0,0 STARLINK-3706,1 52105U 22029T   23255.08858862  .00001036  00000-0  83139-4 0  9998,2 52105  53.2177 202.4800 0001490  96.9262 263.1900 15.08842134 83462,6917.874,95.437,540.77,538.708,0.0
52105.0,STARLINK-3706,PAYLOAD,2023-09-12 05:18:20,15.08845767,0.0001303,53.216,201.8852,95.2257,264.8884,0.00023716,3.489e-05,0.0,0 STARLINK-3706,1 52105U 22029T   23255.22106800  .00003489  00000-0  23716-3 0  9990,2 52105  53.2160 201.8852 0001303  95.2257 264.8884 15.08845767 83489,6917.863,95.437,540.629,538.826,0.0
52105.0,STARLINK-3706,PAYLOAD,2023-09-12 19:36:48,15.0884207,0.0001336,53.2162,199.2095,98.1194,261.9949,0.00052094,8.013e-05,0.0,0 STARLINK-3706,1 52105U 22029T   23255.81723192  .00008013  00000-0  52094-3 0  9993,2 52105  53.2162 199.2095 0001336  98.1194 261.9949 15.08842070 83572,6917.874,95.437,540.663,538.815,0.0
52105.0,STARLINK-3706,PAYLOAD,2023-09-13 05:09:06,15.0888653,0.0001347,53.2158,197.4251,99.4174,260.6971,0.0012242,0.00019274,0.0,0 STARLINK-3706,1 52105U 22029T   23256.21465917  .00019274  00000-0  12242-2 0  9997,2 52105  53.2158 197.4251 0001347  99.4174 260.6971 15.08886530 83632,6917.738,95.435,540.535,538.671,0.0
52105.0,STARLINK-3706,PAYLOAD,2023-09-14 01:49:07,15.08849057,0.0001308,53.2163,193.5598,96.1549,263.9592,0.00011992,1.622e-05,0.0,0 STARLINK-3706,1 52105U 22029T   23257.07578046  .00001622  00000-0  11992-3 0  9990,2 52105  53.2163 193.5598 0001308  96.1549 263.9592 15.08849057 83768,6917.853,95.437,540.623,538.813,0.0
52105.0,STARLINK-3706,PAYLOAD,2023-09-14 04:59:53,15.08842842,0.0001344,53.2161,192.9648,83.2855,276.829,1.1574e-05,-1.04e-06,0.0,0 STARLINK-3706,1 52105U 22029T   23257.20826191 -.00000104  00000-0  11574-4 0  9994,2 52105  53.2161 192.9648 0001344  83.2855 276.8290 15.08842842 83787,6917.872,95.437,540.666,538.807,0.0
52105.0,STARLINK-3706,PAYLOAD,2023-09-14 19:18:22,15.08836486,0.0001383,53.2154,190.2902,78.9043,281.2104,3.2868e-05,2.35e-06,0.0,0 STARLINK-3706,1 52105U 22029T   23257.80442601  .00000235  00000-0  32868-4 0  9993,2 52105  53.2154 190.2902 0001383  78.9043 281.2104 15.08836486 83877,6917.891,95.438,540.713,538.799,0.0
52105.0,STARLINK-3706,PAYLOAD,2023-09-15 04:50:40,15.08849103,0.0001381,53.2161,188.5045,87.9923,272.1227,0.00017493,2.498e-05,0.0,0 STARLINK-3706,1 52105U 22029T   23258.20186237  .00002498  00000-0  17493-3 0  9997,2 52105  53.2161 188.5045 0001381  87.9923 272.1227 15.08849103 83930,6917.853,95.437,540.673,538.762,0.0
52105.0,STARLINK-3706,PAYLOAD,2023-09-16 01:30:41,15.08844169,0.0001424,53.2159,184.6382,88.5987,271.5169,0.00021927,3.204e-05,0.0,0 STARLINK-3706,1 52105U 22029T   23259.06298522  .00003204  00000-0  21927-3 0  9996,2 52105  53.2159 184.6382 0001424  88.5987 271.5169 15.08844169 84063,6917.868,95.437,540.718,538.748,0.0
52105.0,STARLINK-3706,PAYLOAD,2023-09-16 04:41:28,15.08847801,0.000144,53.216,184.0428,90.5603,269.5554,0.0002756,4.102e-05,0.0,0 STARLINK-3706,1 52105U 22029T   23259.19546392  .00004102  00000-0  27560-3 0  9998,2 52105  53.2160 184.0428 0001440  90.5603 269.5554 15.08847801 84089,6917.857,95.437,540.718,538.725,0.0
52105.0,STARLINK-3706,PAYLOAD,2023-09-17 01:21:29,15.0884345,0.0001474,53.2166,180.1771,97.4667,262.6493,7.9505e-05,9.78e-06,0.0,0 STARLINK-3706,1 52105U 22029T   23260.05658605  .00000978  00000-0  79505-4 0  9990,2 52105  53.2166 180.1771 0001474  97.4667 262.6493 15.08843450 84213,6917.87,95.437,540.755,538.715,0.0
52105.0,STARLINK-3706,PAYLOAD,2023-09-17 04:32:15,15.08845472,0.0001429,53.2165,179.5822,96.9835,263.132,0.00010969,1.458e-05,0.0,0 STARLINK-3706,1 52105U 22029T   23260.18906489  .00001458  00000-0  10969-3 0  9992,2 52105  53.2165 179.5822 0001429  96.9835 263.1320 15.08845472 84235,6917.864,95.437,540.717,538.74,0.0
52105.0,STARLINK-3706,PAYLOAD,2023-09-18 01:12:15,15.08856677,0.0001309,53.2158,175.7185,88.5707,271.5435,0.00020416,2.964e-05,0.0,0 STARLINK-3706,1 52105U 22029T   23261.05017800  .00002964  00000-0  20416-3 0  9990,2 52105  53.2158 175.7185 0001309  88.5707 271.5435 15.08856677 84362,6917.829,95.436,540.6,538.789,0.0
52105.0,STARLINK-3706,PAYLOAD,2023-09-18 02:47:38,15.08859249,0.0001363,53.2163,175.4217,90.3355,269.7793,0.00023945,3.527e-05,0.0,0 STARLINK-3706,1 52105U 22029T   23261.11641629  .00003527  00000-0  23945-3 0  9995,2 52105  53.2163 175.4217 0001363  90.3355 269.7793 15.08859249 84376,6917.822,95.436,540.629,538.744,0.0
52105.0,STARLINK-3706,PAYLOAD,2023-09-18 18:41:30,15.08843397,0.0001698,53.2163,172.4471,95.6001,264.5185,0.00012738,1.74e-05,0.0,0 STARLINK-3706,1 52105U 22029T   23261.77882566  .00001740  00000-0  12738-3 0  9997,2 52105  53.2163 172.4471 0001698  95.6001 264.5185 15.08843397 84478,6917.87,95.437,540.91,538.56,0.0
52105.0,STARLINK-3706,PAYLOAD,2023-09-19 02:38:25,15.08857465,0.0001353,53.2164,170.9602,103.167,256.9473,0.0004251,6.487e-05,0.0,0 STARLINK-3706,1 52105U 22029T   23262.11001878  .00006487  00000-0  42510-3 0  9999,2 52105  53.2164 170.9602 0001353 103.1670 256.9473 15.08857465 84525,6917.827,95.436,540.628,538.756,0.0
52105.0,STARLINK-3706,PAYLOAD,2023-09-19 18:32:16,15.08848718,0.0001774,53.2169,167.9877,105.1854,254.9334,0.00029293,4.378e-05,0.0,0 STARLINK-3706,1 52105U 22029T   23262.77241765  .00004378  00000-0  29293-3 0  9992,2 52105  53.2169 167.9877 0001774 105.1854 254.9334 15.08848718 84629,6917.854,95.437,540.946,538.492,0.0
